ONEWEB-0327             
1 49196U 21083L   24029.81159111  .00000024  00000+0  28968-4 0  9999
2 49196  87.9242 148.4770 0001310 116.0593 244.0674 13.18689313115449
ONEWEB-0328             
1 49197U 21083M   24029.73036323  .00001414  00000+0  38357-2 0  9995
2 49197  87.9003 133.3059 0001570  99.4539 260.6768 13.13465536116768
ONEWEB-0331             
1 49198U 21083N   24029.37610197  .00000089  00000+0  19221-3 0  9990
2 49198  87.9243 148.5446 0001405 106.6202 253.5085 13.18686159115378
ONEWEB-0333             
1 49199U 21083P   24029.72559984  .00000365  00000+0  96434-3 0  9994
2 49199  87.9016 133.3186 0001926 108.7850 251.3488 13.13470269116776
ONEWEB-0334             
1 49200U 21083Q   24029.57451984  .00000122  00000+0  26689-3 0  9997
2 49200  87.9157  87.5841 0002742 106.0789 254.0647 13.20772602122006
ONEWEB-0335             
1 49201U 21083R   24029.72083867  .00000212  00000+0  54599-3 0  9997
2 49201  87.9014 133.3077 0001575 100.7471 259.3836 13.13471430116785
ONEWEB-0336             
1 49202U 21083S   24029.30978945 -.00000247  00000+0 -71023-3 0  9993
2 49202  87.9016 133.3868 0001814 109.7158 250.4167 13.13471272116720
ONEWEB-0337             
1 49203U 21083T   24029.70006015 -.00000439  00000+0 -12379-2 0  9999
2 49203  87.9012 133.3077 0001539 100.7539 259.3763 13.13470341116778
